GALAXY 33               
1 54026U 22128A   22310.67921269  .00000079  00000+0  00000+0 0  9996
2 54026   0.0123 282.6947 0002761 314.4759 280.2057  1.00271476   521
GALAXY 34               
1 54027U 22128B   22310.28463479  .00000128  00000+0  00000+0 0  9993
2 54027   0.0172 325.5629 0001300 321.9101  72.5382  1.00274220   558
FALCON 9 R/B            
1 54028U 22128C   22310.43883301  .00004084  00000+0  10599-2 0  9993
2 54028  26.8504 173.1587 5937009 212.0630  91.5331  4.12145657  1171
ASO-S                   
1 54029U 22129A   22310.79277846  .00000161  00000+0  51861-4 0  9996
2 54029  98.2678 315.8117 0015016 174.4857 185.6506 14.50866167  4174
CZ-2D R/B               
1 54030U 22129B   22310.50856516  .00000398  00000+0  10309-3 0  9997
2 54030  98.1952 315.3942 0018986  32.5947 327.6418 14.54817611  4145
COSMOS 2559 [GLONASS-K] 
1 54031U 22130A   22309.48660488 -.00000071  00000+0  00000+0 0  9998
2 54031  64.7801   0.7509 0007518 224.3779 134.9995  2.13101449   552
FREGAT R/B              
1 54032U 22130B   22309.24573730 -.00000072  00000+0  00000+0 0  9997
2 54032  64.7793   0.7462 0026316 174.6026 185.4896  2.11046177   533
ANGOSAT 2               
1 54033U 22131A   22310.56689850  .00000135  00000+0  00000+0 0  9996
2 54033   0.0275 263.8303 0000446 321.2693  47.7799  1.00271538   253
BLOCK DM-SL R/B         
1 54034U 22131B   22310.24512072 -.00000049  00000+0  00000+0 0  9998
2 54034   0.1106 289.3945 0083442 168.5159 263.0617  0.97748186   232
HJ-2E                   
1 54035U 22132A   22310.84143697  .00011201  00000+0  46388-3 0  9993
2 54035  97.3939 316.0449 0013315 176.4670 305.9636 15.24005553  3780
2022-132B               
1 54036U 22132B   22310.80613883  .00182828  00000+0  47874-2 0  9993
2 54036  97.3545 316.2647 0030618 226.1970 236.8072 15.37521029  3801
2022-132C               
1 54037U 22132C   22310.94132857  .00024616  00000+0  23514-2 0  9991
2 54037  97.6519 315.2957 0188621  90.4200 271.8549 14.80737110  3697
2022-132D               
1 54038U 22132D   22310.91581300  .00045504  00000+0  21558-2 0  9995
2 54038  97.5894 316.3495 0099637 146.8795 213.8911 15.14796761  3778
CZ-2C R/B               
1 54039U 22132E   22310.88611589  .00004615  00000+0  23770-3 0  9992
2 54039  97.2515 315.1444 0049264 124.7996 235.7888 15.15800765  3773
2022-132F               
1 54040U 22132F   22310.88997984  .00049212  00000+0  26488-2 0  9990
2 54040  97.1605 314.7799 0122509 137.7928 223.2732 15.08352534  3751
2022-132G               
1 54041U 22132G   22310.93215240  .00022498  00000+0  19168-2 0  9999
2 54041  97.1925 314.2524 0150831  86.3410 275.5100 14.89285638  3715
YAOGAN-36 02A           
1 54042U 22133A   22310.72329988 -.00006026  00000+0 -24325-3 0  9996
2 54042  34.9971 142.3226 0005341 129.5069 323.6878 15.23746147  3500
YAOGAN-36 02B           
1 54043U 22133B   22310.72245727  .00010984  00000+0  44779-3 0  9996
2 54043  34.9984 142.3187 0005457 143.5778 309.3130 15.23660461  3508
CZ-2D R/B               
1 54044U 22133C   22310.88572460  .00026481  00000+0  10023-2 0  9994
2 54044  34.9950 141.0497 0006188 132.0873 228.0370 15.25992932  3532
YAOGAN-36 02C           
1 54045U 22133D   22310.30758102  .00009727  00000+0  39806-3 0  9996
2 54045  34.9970 144.8871 0007573 136.7882 212.3737 15.23539472  3438
CZ-2D DEB               
1 54046U 22133E   22310.23675712  .00028732  00000+0  11025-2 0  9993
2 54046  34.9985 145.2275 0005748 109.3460 250.7875 15.25528948  3435
2022-134A               
1 54048U 22134A   22305.78830696  .00000017  00000+0 -68892-2 0  9995
2 54048  21.3729 297.8206 7709122 185.4401 153.5221  1.19670591   224
2022-134B               
1 54049U 22134B   22304.19603096 -.00000062  00000+0 -50207-3 0  9995
2 54049  26.7324 297.8844 8048682 185.0595 152.6429  1.34295976   217
COSMOS 2560             
1 54050U 22135A   22310.80848678  .00326379  00000+0  12562-2 0  9991
2 54050  96.3428  37.1120 0008740 177.5992 331.3680 15.86490178  3467
STARLINK-5195           
1 54051U 22136A   22311.00001157 -.01195881  00000+0 -10063-1 0  9997
2 54051  53.2170  61.8586 0001740  28.2745  72.7468 15.71685129  3247
STARLINK-5189           
1 54052U 22136B   22311.00001157  .00041994  00000+0  30177-3 0  9990
2 54052  53.2172  61.4140 0001398   5.3314 313.7573 15.73227967  3259
STARLINK-5176           
1 54053U 22136C   22311.00001157 -.01198158  00000+0 -10069-1 0  9995
2 54053  53.2173  61.8576 0001888  25.0056  76.6875 15.71719089  3242
STARLINK-5163           
1 54054U 22136D   22311.00001157 -.01197121  00000+0 -10026-1 0  9998
2 54054  53.2170  61.8524 0001749  28.5705  75.0676 15.71798331  3247
STARLINK-5158           
1 54055U 22136E   22311.00001157 -.01117197  00000+0 -94900-2 0  9998
2 54055  53.2174  61.8546 0001791  32.3572  70.6222 15.71712437  3249
STARLINK-5226           
1 54056U 22136F   22311.00001157 -.01166411  00000+0 -98899-2 0  9993
2 54056  53.2173  61.8515 0005999 273.7716 190.5283 15.71819767  3243
STARLINK-5216           
1 54057U 22136G   22311.00001157 -.01203693  00000+0 -10054-1 0  9994
2 54057  53.2173  61.8508 0001755  25.2714  79.6985 15.71874900  3246
STARLINK-5167           
1 54058U 22136H   22310.58334491 -.01123571  00000+0 -90480-2 0  9995
2 54058  53.2170  63.9081 0001681  33.8578 232.4019 15.72973201  1301
STARLINK-5173           
1 54059U 22136J   22310.58334491 -.01065247  00000+0 -85531-2 0  9992
2 54059  53.2171  63.9103 0002996 287.2185 338.4618 15.72884535  1300
STARLINK-5169           
1 54060U 22136K   22311.00001157 -.00003348  00000+0 -19464-4 0  9999
2 54060  53.2148  61.0486 0001512  34.9411 100.1146 15.73177191  3251
STARLINK-5209           
1 54061U 22136L   22310.58334491  .00138278  00000+0  53307-3 0  9994
2 54061  53.2161  63.1281 0013785 102.5750 186.6765 15.86276747  1307
STARLINK-5170           
1 54062U 22136M   22310.58334491 -.01246010  00000+0 -99148-2 0  9994
2 54062  53.2171  63.9062 0002480 297.4028 330.0216 15.73084285  1302
STARLINK-5225           
1 54063U 22136N   22311.00001157 -.01161528  00000+0 -97670-2 0  9991
2 54063  53.2173  61.8444 0005549 275.6803 192.5454 15.72009339  3240
STARLINK-5172           
1 54064U 22136P   22311.00001157 -.00132299  00000+0 -94994-3 0  9991
2 54064  53.2151  61.7900 0002620  12.5880 121.0889 15.73271811  3249
STARLINK-5187           
1 54065U 22136Q   22311.00001157 -.01161349  00000+0 -97344-2 0  9992
2 54065  53.2173  61.8419 0005398 275.7835 193.7578 15.72085769  3243
STARLINK-5151           
1 54066U 22136R   22310.58334491 -.01109176  00000+0 -88801-2 0  9993
2 54066  53.2171  63.9039 0001361  40.1631 228.5071 15.73076293  1300
STARLINK-5174           
1 54067U 22136S   22310.58334491 -.01142040  00000+0 -91184-2 0  9999
2 54067  53.2172  63.9011 0002264 296.6011 333.8529 15.73210095  1303
STARLINK-5222           
1 54068U 22136T   22310.58334491 -.01115005  00000+0 -89022-2 0  9999
2 54068  53.2171  63.9013 0001083  87.9948 181.8690 15.73157056  1300
STARLINK-5223           
1 54069U 22136U   22311.00001157 -.01160407  00000+0 -96325-2 0  9998
2 54069  53.2173  61.8340 0005296 276.0583 197.3791 15.72311437  3242
STARLINK-5181           
1 54070U 22136V   22311.00001157 -.01156861  00000+0 -96546-2 0  9994
2 54070  53.2173  61.8376 0004050 281.1065 190.3920 15.72196731  3247
STARLINK-5168           
1 54071U 22136W   22311.00001157 -.01163152  00000+0 -96729-2 0  9999
2 54071  53.2173  61.8354 0005167 276.0659 196.7270 15.72277811  3243
STARLINK-5144           
1 54072U 22136X   22310.58334491 -.01142031  00000+0 -90879-2 0  9995
2 54072  53.2171  63.8983 0001669  32.7272 238.9048 15.73293821  1300
STARLINK-5146           
1 54073U 22136Y   22311.00001157 -.00073324  00000+0 -52162-3 0  9995
2 54073  53.2161  61.8331 0002291  19.5377  96.2463 15.73238971  3242
STARLINK-5192           
1 54074U 22136Z   22310.58334491 -.01139408  00000+0 -90221-2 0  9992
2 54074  53.2171  63.8949 0001431  27.7464 245.6509 15.73404529  1304
STARLINK-5212           
1 54075U 22136AA  22310.58334491  .00035898  00000+0  25910-3 0  9992
2 54075  53.2163  63.8955 0002264  29.0668 246.1818 15.73198514  1302
STARLINK-5201           
1 54076U 22136AB  22311.00001157 -.01160832  00000+0 -96111-2 0  9991
2 54076  53.2173  61.8312 0004156 281.3765 193.3428 15.72390064  3240
STARLINK-5171           
1 54077U 22136AC  22311.00001157 -.00091192  00000+0 -65126-3 0  9996
2 54077  53.2163  61.8288 0002404  19.2053  98.9752 15.73235937  3242
STARLINK-5138           
1 54078U 22136AD  22311.00001157 -.00030524  00000+0 -21378-3 0  9990
2 54078  53.2165  61.8314 0002649  15.0369 102.5825 15.73202390  3240
STARLINK-5175           
1 54079U 22136AE  22310.58334491 -.00045471  00000+0 -32059-3 0  9998
2 54079  53.2163  63.8907 0002298  23.8484 253.7122 15.73248675  1304
STARLINK-5160           
1 54080U 22136AF  22310.58334491  .00032806  00000+0  23728-3 0  9999
2 54080  53.2161  63.8941 0002231  37.4176 238.3727 15.73195579  1302
STARLINK-5165           
1 54081U 22136AG  22311.00001157 -.00044527  00000+0 -31431-3 0  9993
2 54081  53.2161  61.8237 0002163  24.6796  95.3335 15.73211943  3244
STARLINK-5210           
1 54082U 22136AH  22310.58334491  .00034579  00000+0  24980-3 0  9991
2 54082  53.2162  63.8892 0002300  29.2199 248.9990 15.73197169  1307
STARLINK-5178           
1 54083U 22136AJ  22310.58334491  .00030821  00000+0  22318-3 0  9991
2 54083  53.2160  63.8832 0002307  31.8215 249.3148 15.73202111  1309
STARLINK-5183           
1 54084U 22136AK  22310.58334491 -.00058044  00000+0 -41130-3 0  9994
2 54084  53.2159  63.8863 0002377  21.9340 257.4989 15.73235339  1309
STARLINK-5166           
1 54085U 22136AL  22311.00001157 -.00079398  00000+0 -56575-3 0  9997
2 54085  53.2163  61.8188 0002128  25.2919  97.6485 15.73233823  3231
